{
  "type": "FeatureCollection",
  "features": [
    {
      "type": "Feature",
      "properties": {
        "norad_id": 35455,
        "name": "COSMOS 2251 DEB",
        "group": "cosmos-2251-debris",
        "lat": -16.623190827198815,
        "lon": 120.188321821093,
        "alt_km": 797.3740594940637,
        "timestamp": "2025-12-12T11:38:31.808827+00:00",
        "meta_object_name": "COSMOS 2251 DEB",
        "meta_object_id": "1993-036AKZ",
        "meta_epoch": "2025-12-10T07:23:15.145152",
        "meta_mean_motion": 14.49356293,
        "meta_eccentricity": 0.0098984,
        "meta_inclination": 74.0286,
        "meta_ra_of_asc_node": 299.3687,
        "meta_arg_of_pericenter": 43.4933,
        "meta_mean_anomaly": 317.3978,
        "meta_ephemeris_type": 0,
        "meta_classification_type": "U",
        "meta_norad_cat_id": 35455,
        "meta_element_set_no": 999,
        "meta_rev_at_epoch": 86508,
        "meta_bstar": 0.0024937,
        "meta_mean_motion_dot": 0.00010129,
        "meta_mean_motion_ddot": 0,
        "tle_line1": "1 35455U 93036AKZ 25344.30781418  .00010129  00000+0  24937-2 0  9992",
        "tle_line2": "2 35455  74.0286 299.3687 0098984  43.4933 317.3978 14.49356293865080"
      },
      "geometry": {
        "type": "Point",
        "coordinates": [
          120.188321821093,
          -16.623190827198815
        ]
      }
    },
    {
      "type": "Feature",
      "properties": {
        "norad_id": 35456,
        "name": "COSMOS 2251 DEB",
        "group": "cosmos-2251-debris",
        "lat": 0.5766199124190148,
        "lon": -62.19197373468332,
        "alt_km": 704.6170371128374,
        "timestamp": "2025-12-12T11:38:31.808837+00:00",
        "meta_object_name": "COSMOS 2251 DEB",
        "meta_object_id": "1993-036ALA",
        "meta_epoch": "2025-12-07T16:26:35.520576",
        "meta_mean_motion": 14.69275987,
        "meta_eccentricity": 0.0065481,
        "meta_inclination": 73.9502,
        "meta_ra_of_asc_node": 127.3161,
        "meta_arg_of_pericenter": 338.308,
        "meta_mean_anomaly": 21.5318,
        "meta_ephemeris_type": 0,
        "meta_classification_type": "U",
        "meta_norad_cat_id": 35456,
        "meta_element_set_no": 999,
        "meta_rev_at_epoch": 65801,
        "meta_bstar": 0.0028319025,
        "meta_mean_motion_dot": 0.00017275,
        "meta_mean_motion_ddot": 0,
        "tle_line1": "1 35456U 93036ALA 25341.68513334  .00017275  00000+0  28319-2 0  9998",
        "tle_line2": "2 35456  73.9502 127.3161 0065481 338.3080  21.5318 14.69275987658019"
      },
      "geometry": {
        "type": "Point",
        "coordinates": [
          -62.19197373468332,
          0.5766199124190148
        ]
      }
    },
    {
      "type": "Feature",
      "properties": {
        "norad_id": 35459,
        "name": "COSMOS 2251 DEB",
        "group": "cosmos-2251-debris",
        "lat": -48.29017809083607,
        "lon": 26.705715887524264,
        "alt_km": 774.3640490979406,
        "timestamp": "2025-12-12T11:38:31.808847+00:00",
        "meta_object_name": "COSMOS 2251 DEB",
        "meta_object_id": "1993-036ALD",
        "meta_epoch": "2025-12-10T20:09:22.902624",
        "meta_mean_motion": 14.37457314,
        "meta_eccentricity": 0.00163485,
        "meta_inclination": 73.8697,
        "meta_ra_of_asc_node": 190.8154,
        "meta_arg_of_pericenter": 139.3588,
        "meta_mean_anomaly": 220.8788,
        "meta_ephemeris_type": 0,
        "meta_classification_type": "U",
        "meta_norad_cat_id": 35459,
        "meta_element_set_no": 999,
        "meta_rev_at_epoch": 58334,
        "meta_bstar": 0.00035409839,
        "meta_mean_motion_dot": 1.034e-05,
        "meta_mean_motion_ddot": 0,
        "tle_line1": "1 35459U 93036ALD 25344.83984841  .00001034  00000+0  35410-3 0  9993",
        "tle_line2": "2 35459  73.8697 190.8154 0016348 139.3588 220.8788 14.37457314583342"
      },
      "geometry": {
        "type": "Point",
        "coordinates": [
          26.705715887524264,
          -48.29017809083607
        ]
      }
    },
    {
      "type": "Feature",
      "properties": {
        "norad_id": 35462,
        "name": "COSMOS 2251 DEB",
        "group": "cosmos-2251-debris",
        "lat": -54.470447243525335,
        "lon": -114.48378959044223,
        "alt_km": 738.4937678290507,
        "timestamp": "2025-12-12T11:38:31.808857+00:00",
        "meta_object_name": "COSMOS 2251 DEB",
        "meta_object_id": "1993-036ALG",
        "meta_epoch": "2025-12-11T03:59:29.501088",
        "meta_mean_motion": 14.29274316,
        "meta_eccentricity": 0.00868722,
        "meta_inclination": 74.0365,
        "meta_ra_of_asc_node": 271.5419,
        "meta_arg_of_pericenter": 307.0131,
        "meta_mean_anomaly": 52.3091,
        "meta_ephemeris_type": 0,
        "meta_classification_type": "U",
        "meta_norad_cat_id": 35462,
        "meta_element_set_no": 999,
        "meta_rev_at_epoch": 66358,
        "meta_bstar": 0.0025437171,
        "meta_mean_motion_dot": 6.718e-05,
        "meta_mean_motion_ddot": 0,
        "tle_line1": "1 35462U 93036ALG 25345.16631367  .00006718  00000+0  25437-2 0  9997",
        "tle_line2": "2 35462  74.0365 271.5419 0086872 307.0131  52.3091 14.29274316663589"
      },
      "geometry": {
        "type": "Point",
        "coordinates": [
          -114.48378959044223,
          -54.470447243525335
        ]
      }
    },
    {
      "type": "Feature",
      "properties": {
        "norad_id": 35465,
        "name": "COSMOS 2251 DEB",
        "group": "cosmos-2251-debris",
        "lat": -12.198248061011398,
        "lon": -166.05237338860593,
        "alt_km": 703.4229635343754,
        "timestamp": "2025-12-12T11:38:31.808867+00:00",
        "meta_object_name": "COSMOS 2251 DEB",
        "meta_object_id": "1993-036ALK",
        "meta_epoch": "2025-12-11T14:05:22.272576",
        "meta_mean_motion": 14.44314277,
        "meta_eccentricity": 0.0064083,
        "meta_inclination": 73.9997,
        "meta_ra_of_asc_node": 199.178,
        "meta_arg_of_pericenter": 359.7129,
        "meta_mean_anomaly": 0.398,
        "meta_ephemeris_type": 0,
        "meta_classification_type": "U",
        "meta_norad_cat_id": 35465,
        "meta_element_set_no": 999,
        "meta_rev_at_epoch": 87225,
        "meta_bstar": 0.00056971702,
        "meta_mean_motion_dot": 1.982e-05,
        "meta_mean_motion_ddot": 0,
        "tle_line1": "1 35465U 93036ALK 25345.58706334  .00001982  00000+0  56972-3 0  9990",
        "tle_line2": "2 35465  73.9997 199.1780 0064083 359.7129   0.3980 14.44314277872252"
      },
      "geometry": {
        "type": "Point",
        "coordinates": [
          -166.05237338860593,
          -12.198248061011398
        ]
      }
    },
    {
      "type": "Feature",
      "properties": {
        "norad_id": 35469,
        "name": "COSMOS 2251 DEB",
        "group": "cosmos-2251-debris",
        "lat": 1.1393484479187574,
        "lon": -155.97570352728056,
        "alt_km": 673.974532587341,
        "timestamp": "2025-12-12T11:38:31.808878+00:00",
        "meta_object_name": "COSMOS 2251 DEB",
        "meta_object_id": "1993-036ALP",
        "meta_epoch": "2025-12-10T09:08:19.185504",
        "meta_mean_motion": 14.49816344,
        "meta_eccentricity": 0.00770564,
        "meta_inclination": 74.0175,
        "meta_ra_of_asc_node": 28.3045,
        "meta_arg_of_pericenter": 184.2675,
        "meta_mean_anomaly": 175.7838,
        "meta_ephemeris_type": 0,
        "meta_classification_type": "U",
        "meta_norad_cat_id": 35469,
        "meta_element_set_no": 999,
        "meta_rev_at_epoch": 88077,
        "meta_bstar": 0.00017261696,
        "meta_mean_motion_dot": 6.62e-06,
        "meta_mean_motion_ddot": 0,
        "tle_line1": "1 35469U 93036ALP 25344.38077761  .00000662  00000+0  17262-3 0  9999",
        "tle_line2": "2 35469  74.0175  28.3045 0077056 184.2675 175.7838 14.49816344880776"
      },
      "geometry": {
        "type": "Point",
        "coordinates": [
          -155.97570352728056,
          1.1393484479187574
        ]
      }
    },
    {
      "type": "Feature",
      "properties": {
        "norad_id": 35475,
        "name": "COSMOS 2251 DEB",
        "group": "cosmos-2251-debris",
        "lat": 13.165828858276422,
        "lon": 169.96223953469274,
        "alt_km": 673.0585035391359,
        "timestamp": "2025-12-12T11:38:31.808888+00:00",
        "meta_object_name": "COSMOS 2251 DEB",
        "meta_object_id": "1993-036ALV",
        "meta_epoch": "2025-12-11T04:32:24.397728",
        "meta_mean_motion": 14.69672963,
        "meta_eccentricity": 0.0020715,
        "meta_inclination": 74.0218,
        "meta_ra_of_asc_node": 168.6316,
        "meta_arg_of_pericenter": 241.6162,
        "meta_mean_anomaly": 118.292,
        "meta_ephemeris_type": 0,
        "meta_classification_type": "U",
        "meta_norad_cat_id": 35475,
        "meta_element_set_no": 999,
        "meta_rev_at_epoch": 65594,
        "meta_bstar": 0.0028598463,
        "meta_mean_motion_dot": 0.00017092,
        "meta_mean_motion_ddot": 0,
        "tle_line1": "1 35475U 93036ALV 25345.18917127  .00017092  00000+0  28598-2 0  9992",
        "tle_line2": "2 35475  74.0218 168.6316 0020715 241.6162 118.2920 14.69672963655941"
      },
      "geometry": {
        "type": "Point",
        "coordinates": [
          169.96223953469274,
          13.165828858276422
        ]
      }
    }
  ]
}